[{"OBJECT_NAME":"STARLINK-4730","OBJECT_ID":"2022-111X","EPOCH":"2026-03-09T20:35:10.878720","MEAN_MOTION":15.08837359,"ECCENTRICITY":0.00013423,"INCLINATION":53.2157,"RA_OF_ASC_NODE":273.2168,"ARG_OF_PERICENTER":95.9719,"MEAN_ANOMALY":264.1426,"EPHEMERIS_TYPE":0,"CLASSIFICATION_TYPE":"U","NORAD_CAT_ID":53794,"ELEMENT_SET_NO":999,"REV_AT_EPOCH":19371,"BSTAR":-4.45596e-6,"MEAN_MOTION_DOT":-3.59e-6,"MEAN_MOTION_DDOT":0},{"OBJECT_NAME":"CZ-2F DEB","OBJECT_ID":"2022-093H","EPOCH":"2026-03-09T22:47:12.359904","MEAN_MOTION":15.21733628,"ECCENTRICITY":0.00740619,"INCLINATION":50.0217,"RA_OF_ASC_NODE":315.3952,"ARG_OF_PERICENTER":34.8084,"MEAN_ANOMALY":325.7683,"EPHEMERIS_TYPE":0,"CLASSIFICATION_TYPE":"U","NORAD_CAT_ID":53364,"ELEMENT_SET_NO":999,"REV_AT_EPOCH":19831,"BSTAR":0.00048014935,"MEAN_MOTION_DOT":0.00011557,"MEAN_MOTION_DDOT":0}]
